CUBEBUG-2 (LO-74)
1 39440U 13066AA  26201.82121943  .00001885  00000-0  17745-3 0  9996
2 39440  97.8921 150.9507 0055527 276.2842  83.2055 14.93990306682014
FUNCUBE-1 (AO-73)
1 39444U 13066AE  26201.85964422  .00005490  00000-0  33755-3 0  9995
2 39444  97.8300 174.0216 0038088  89.2835 271.2758 15.09868744684749
UWE-3
1 39446U 13066AG  26201.83392220  .00002531  00000-0  21910-3 0  9999
2 39446  97.8725 158.1433 0047714 205.2045 154.6848 14.97225341682619
UNISAT-6
1 40012U 14033C   26201.68149141  .00001158  00000-0  12893-3 0  9994
2 40012  97.7917 353.8140 0043771 319.3507  40.4445 14.88379652651144
DUCHIFAT-1
1 40021U 14033M   26201.77341516  .00107775  00000-0  81365-3 0  9996
2 40021  98.0408 265.8557 0003439 229.1155 130.9809 15.72127670661012
LILACSAT-2
1 40908U 15049K   26201.92838593  .00013675  00000-0  22459-3 0  9995
2 40908  97.4628 240.0713 0008636 124.7606 235.4461 15.52491518600984
CAS-2T & KS-1Q
1 41847U 16066G   26201.82994351  .00000501  00000-0  78947-4 0  9990
2 41847  98.3810 277.1812 0341953  27.6850 334.2092 14.44776648509655
FOX-1B (AO-91)
1 43017U 17073E   26201.14517518  .00003253  00000-0  14349-3 0  9993
2 43017  97.4661  67.6884 0148448 214.2207 144.9390 15.13099239470379
FUNCUBE-3 (EO-79)/QB50P1
1 40025U 14033R   26201.49323626  .00004584  00000-0  22434-3 0  9997
2 40025  98.0973 214.9866 0010530 109.2595 250.9778 15.18713788658089
FOX-1A (AO-85)
1 40967U 15058D   26201.28466239  .00001929  00000-0  17930-3 0  9990
2 40967  64.7727 176.1140 0132784  43.8857 317.2710 14.91108157118504
DIWATA-2B (PO-101)
1 43678U 18084H   26201.97899291  .00000985  00000-0  83165-4 0  9993
2 43678  98.1221  39.6681 0012518  66.4375 293.8160 15.00575625421286
ESHAIL-2
1 43700U 18090A   26201.33824611  .00000143  00000-0  00000-0 0  9999
2 43700   0.0208  80.1003 0002452  77.6851 287.8888  1.00274071 28006
ITASAT-1
1 43786U 18099AE  26201.41463476  .00003642  00000-0  17496-3 0  9996
2 43786  97.4007 252.2679 0011187 230.0239 130.0014 15.19417487417959
FOX-1CLIFF (AO-95)
1 43770U 18099N   26201.69339169  .00006582  00000-0  24842-3 0  9999
2 43770  97.4361 261.8279 0007726 217.8833 142.1863 15.27341494418336
JY1SAT (JO-97)
1 43803U 18099AX  26201.81639695  .00012271  00000-0  36756-3 0  9996
2 43803  97.4107 264.7878 0007261 141.3682 218.8082 15.34633292418786
UWE-4
1 43880U 18111E   26201.78247037  .00021799  00000-0  41741-3 0  9992
2 43880  97.5826 131.7716 0007026 173.9264 186.2072 15.48042440415979
CAS-6 (TO-108)
1 44881U 19093C   26201.96969119  .00000850  00000-0  10187-3 0  9991
2 44881  97.7512 273.3761 0013031 342.5164  17.5601 14.86567412356435
DOSAAF-85 (RS-44)
1 44909U 19096E   26201.85731034  .00000003  00000-0 -38551-4 0  9993
2 44909  82.5240 317.3331 0218407  65.8142 296.5621 12.79748835306653
SALSAT (TUBSAT 22)
1 46495U 20068K   26201.95728298  .00005257  00000-0  18248-3 0  9990
2 46495  97.8866 207.0909 0009821 172.7459 187.3924 15.30221969320520
CAMSAT XW-3 (CAS-9)
1 50466U 21131B   26201.93081427  .00000195  00000-0  73813-4 0  9995
2 50466  98.4982 294.1387 0004202  15.6588 344.4730 14.41384317239979
ROBUSTA 1F (MTCUBE-2)
1 53109U 22080E   26201.17921782 -.00000003  00000-0  00000-0 0  9992
2 53109  70.1400 286.7734 0009089 282.4177  77.5466  6.42583323 94189
UMKA-1 (RS40S)
1 57172U 23091G   26201.90892638  .00003836  00000-0  17507-3 0  9996
2 57172  97.5028 260.4807 0012450  10.2870 349.8618 15.21158805169137
CUBESX-HSE-3 (RS42S)
1 57178U 23091N   26201.95052699  .00009281  00000-0  30285-3 0  9990
2 57178  97.5069 267.9801 0009105 340.2167  19.8720 15.31969656169595
MONITOR-3 (RS58S)
1 57180U 23091Q   26201.92038218  .00007221  00000-0  26321-3 0  9999
2 57180  97.5061 265.6253 0010371 348.9774  11.1236 15.28438230169448
MONITOR-4 (RS57S)
1 57182U 23091S   26201.89755302  .00006996  00000-0  25443-3 0  9999
2 57182  97.5055 265.5753 0010392 349.2560  10.8456 15.28525647169446
MONITOR-2 (RS39S)
1 57184U 23091U   26201.90742812  .00003154  00000-0  15305-3 0  9994
2 57184  97.5050 259.9749 0010807   4.7122 355.4212 15.19184572169078
SVYATOBOR-1 (RS60S)
1 57187U 23091X   26201.94072409  .00006020  00000-0  22903-3 0  9996
2 57187  97.5068 265.9534 0008146 343.4159  16.6812 15.27119129169465
VIZARD-METEO (RS38S)
1 57189U 23091Z   26201.94650594  .00011871  00000-0  33019-3 0  9995
2 57189  97.5069 272.1299 0005242 314.6269  45.4547 15.36985023169876
UTMN-2 (RS27S)
1 57203U 23091AP  26201.94996308  .00008924  00000-0  28421-3 0  9994
2 57203  97.5066 269.6543 0006230 327.1315  32.9538 15.32784115169711
POLYTECH UNIVERSE-3 (RS46S)
1 57191U 23091AB  26201.93000829  .00003122  00000-0  15037-3 0  9997
2 57191  97.5027 259.5016 0015530  18.5255 341.6542 15.19398160169074
